start=new Date('2021-10-13T00:00:00.000Z').valueOf();
sats=[{"ARG_OF_PERICENTER":"111.1032","CENTER_NAME":"EARTH","INCLINATION":"53.0563","OBJECT_ID":"2020-012AV","RA_OF_ASC_NODE":"30.3576","MEAN_ELEMENT_THEORY":"SGP4","EPHEMERIS_TYPE":"0","TLE_LINE1":"1 45221U 20012AV  21285.54363387  .00000511  00000-0  53195-4 0  9990","MEAN_MOTION_DOT":"0.00000511","BSTAR":"0.00005319500000","EPOCH":"2021-10-12T13:02:49.966368","TIME_SYSTEM":"UTC","NORAD_CAT_ID":"45221","OBJECT_TYPE":"PAYLOAD","SITE":"AFETR","MEAN_ANOMALY":"249.0076","REV_AT_EPOCH":"9286","GP_ID":"186980773","REF_FRAME":"TEME","TLE_LINE2":"2 45221  53.0563  30.3576 0001117 111.1032 249.0076 15.06403349 92869","PERIAPSIS":"546.430","CLASSIFICATION_TYPE":"U","COUNTRY_CODE":"US","OBJECT_NAME":"STARLINK-1189","LAUNCH_DATE":"2020-02-17","DECAY_DATE":null,"ELEMENT_SET_NO":"999","RCS_SIZE":"LARGE","PERIOD":"95.592","ECCENTRICITY":"0.00011170","MEAN_MOTION_DDOT":"0.0000000000000","FILE":"3158851","SEMIMAJOR_AXIS":"6925.338","MEAN_MOTION":"15.06403349","APOAPSIS":"547.977"},{"RCS_SIZE":"LARGE","PERIOD":"95.592","MEAN_MOTION_DDOT":"0.0000000000000","ECCENTRICITY":"0.00014680","FILE":"3159338","MEAN_MOTION":"15.06396867","SEMIMAJOR_AXIS":"6925.358","APOAPSIS":"548.240","REF_FRAME":"TEME","GP_ID":"187013133","PERIAPSIS":"546.207","TLE_LINE2":"2 45222  53.0566  28.8407 0001468 109.4106 250.7042 15.06396867 92913","CLASSIFICATION_TYPE":"U","COUNTRY_CODE":"US","OBJECT_NAME":"STARLINK-1191","LAUNCH_DATE":"2020-02-17","DECAY_DATE":null,"ELEMENT_SET_NO":"999","NORAD_CAT_ID":"45222","OBJECT_TYPE":"PAYLOAD","SITE":"AFETR","MEAN_ANOMALY":"250.7042","REV_AT_EPOCH":"9291","ARG_OF_PERICENTER":"109.4106","CENTER_NAME":"EARTH","INCLINATION":"53.0566","OBJECT_ID":"2020-012AW","RA_OF_ASC_NODE":"28.8407","MEAN_ELEMENT_THEORY":"SGP4","EPHEMERIS_TYPE":"0","TLE_LINE1":"1 45222U 20012AW  21285.88274198  .00001112  00000-0  93550-4 0  9996","MEAN_MOTION_DOT":"0.00001112","BSTAR":"0.00009355000000","EPOCH":"2021-10-12T21:11:08.907072","TIME_SYSTEM":"UTC"},{"RA_OF_ASC_NODE":"30.5330","MEAN_ELEMENT_THEORY":"SGP4","EPHEMERIS_TYPE":"0","MEAN_MOTION_DOT":"-0.00000031","TLE_LINE1":"1 45223U 20012AX  21285.50678132 -.00000031  00000-0  16819-4 0  9995","EPOCH":"2021-10-12T12:09:45.906048","BSTAR":"0.00001681900000","TIME_SYSTEM":"UTC","ARG_OF_PERICENTER":"105.4092","CENTER_NAME":"EARTH","INCLINATION":"53.0561","OBJECT_ID":"2020-012AX","SITE":"AFETR","REV_AT_EPOCH":"9286","MEAN_ANOMALY":"254.7032","NORAD_CAT_ID":"45223","OBJECT_TYPE":"PAYLOAD","OBJECT_NAME":"STARLINK-1212","LAUNCH_DATE":"2020-02-17","DECAY_DATE":null,"ELEMENT_SET_NO":"999","REF_FRAME":"TEME","GP_ID":"186979772","CLASSIFICATION_TYPE":"U","TLE_LINE2":"2 45223  53.0561  30.5330 0001219 105.4092 254.7032 15.06395341 92861","PERIAPSIS":"546.384","COUNTRY_CODE":"US","MEAN_MOTION":"15.06395341","SEMIMAJOR_AXIS":"6925.363","APOAPSIS":"548.072","RCS_SIZE":"LARGE","PERIOD":"95.592","ECCENTRICITY":"0.00012190","MEAN_MOTION_DDOT":"0.0000000000000","FILE":"3158851"},{"MEAN_MOTION_DOT":"-0.00000249","TLE_LINE1":"1 45224U 20012AY  21285.48385898 -.00000249  00000-0  29707-5 0  9999","EPHEMERIS_TYPE":"0","MEAN_ELEMENT_THEORY":"SGP4","RA_OF_ASC_NODE":"333.2113","TIME_SYSTEM":"UTC","EPOCH":"2021-10-12T11:36:45.415872","BSTAR":"0.00000297070000","ARG_OF_PERICENTER":"277.0557","OBJECT_ID":"2020-012AY","INCLINATION":"53.0494","CENTER_NAME":"EARTH","MEAN_ANOMALY":"82.9564","REV_AT_EPOCH":"9270","SITE":"AFETR","OBJECT_TYPE":"PAYLOAD","NORAD_CAT_ID":"45224","DECAY_DATE":null,"LAUNCH_DATE":"2020-02-17","OBJECT_NAME":"STARLINK-1214","ELEMENT_SET_NO":"999","TLE_LINE2":"2 45224  53.0494 333.2113 0007868 277.0557  82.9564 15.68036136 92703","CLASSIFICATION_TYPE":"U","PERIAPSIS":"359.218","REF_FRAME":"TEME","GP_ID":"186988392","COUNTRY_CODE":"US","MEAN_MOTION":"15.68036136","SEMIMAJOR_AXIS":"6742.658","APOAPSIS":"369.828","MEAN_MOTION_DDOT":"0.0000000000000","ECCENTRICITY":"0.00078680","PERIOD":"91.835","RCS_SIZE":"LARGE","FILE":"3159101"},{"RA_OF_ASC_NODE":"30.4324","MEAN_ELEMENT_THEORY":"SGP4","EPHEMERIS_TYPE":"0","MEAN_MOTION_DOT":"0.00001157","TLE_LINE1":"1 45225U 20012AZ  21285.52521454  .00001157  00000-0  96568-4 0  9991","BSTAR":"0.00009656800000","EPOCH":"2021-10-12T12:36:18.536256","TIME_SYSTEM":"UTC","ARG_OF_PERICENTER":"99.4365","CENTER_NAME":"EARTH","INCLINATION":"53.0557","OBJECT_ID":"2020-012AZ","SITE":"AFETR","MEAN_ANOMALY":"260.6761","REV_AT_EPOCH":"9281","NORAD_CAT_ID":"45225","OBJECT_TYPE":"PAYLOAD","OBJECT_NAME":"STARLINK-1215","LAUNCH_DATE":"2020-02-17","DECAY_DATE":null,"ELEMENT_SET_NO":"999","GP_ID":"186980274","REF_FRAME":"TEME","TLE_LINE2":"2 45225  53.0557  30.4324 0001214  99.4365 260.6761 15.06399479 92816","PERIAPSIS":"546.374","CLASSIFICATION_TYPE":"U","COUNTRY_CODE":"US","MEAN_MOTION":"15.06399479","SEMIMAJOR_AXIS":"6925.350","APOAPSIS":"548.056","RCS_SIZE":"LARGE","PERIOD":"95.592","MEAN_MOTION_DDOT":"0.0000000000000","ECCENTRICITY":"0.00012140","FILE":"3158851"},{"APOAPSIS":"548.201","SEMIMAJOR_AXIS":"6925.321","MEAN_MOTION":"15.06409023","FILE":"3159338","ECCENTRICITY":"0.00014660","MEAN_MOTION_DDOT":"0.0000000000000","PERIOD":"95.592","RCS_SIZE":"LARGE","ELEMENT_SET_NO":"999","DECAY_DATE":null,"LAUNCH_DATE":"2020-02-17","OBJECT_NAME":"STARLINK-1217","COUNTRY_CODE":"US","CLASSIFICATION_TYPE":"U","TLE_LINE2":"2 45226  53.0552  29.8075 0001466 112.1785 247.9360 15.06409023 92792","PERIAPSIS":"546.171","REF_FRAME":"TEME","GP_ID":"187012634","MEAN_ANOMALY":"247.9360","REV_AT_EPOCH":"9279","SITE":"AFETR","OBJECT_TYPE":"PAYLOAD","NORAD_CAT_ID":"45226","TIME_SYSTEM":"UTC","BSTAR":"0.00017125000000","EPOCH":"2021-10-12T15:57:59.626944","TLE_LINE1":"1 45226U 20012BA  21285.66527346  .00002271  00000-0  17125-3 0  9992","MEAN_MOTION_DOT":"0.00002271","EPHEMERIS_TYPE":"0","MEAN_ELEMENT_THEORY":"SGP4","RA_OF_ASC_NODE":"29.8075","OBJECT_ID":"2020-012BA","INCLINATION":"53.0552","CENTER_NAME":"EARTH","ARG_OF_PERICENTER":"112.1785"},{"FILE":"3159103","PERIOD":"95.592","RCS_SIZE":"LARGE","MEAN_MOTION_DDOT":"0.0000000000000","ECCENTRICITY":"0.00012470","APOAPSIS":"548.059","MEAN_MOTION":"15.06405988","SEMIMAJOR_AXIS":"6925.330","COUNTRY_CODE":"US","REF_FRAME":"TEME","GP_ID":"186988425","TLE_LINE2":"2 45227  53.0540  30.3190 0001247  95.8786 264.2345 15.06405988 91891","CLASSIFICATION_TYPE":"U","PERIAPSIS":"546.332","ELEMENT_SET_NO":"999","OBJECT_NAME":"STARLINK-1221","DECAY_DATE":null,"LAUNCH_DATE":"2020-02-17","NORAD_CAT_ID":"45227","OBJECT_TYPE":"PAYLOAD","SITE":"AFETR","REV_AT_EPOCH":"9189","MEAN_ANOMALY":"264.2345","CENTER_NAME":"EARTH","OBJECT_ID":"2020-012BB","INCLINATION":"53.0540","ARG_OF_PERICENTER":"95.8786","BSTAR":"0.00016544000000","EPOCH":"2021-10-12T13:18:45.797472","TIME_SYSTEM":"UTC","MEAN_ELEMENT_THEORY":"SGP4","RA_OF_ASC_NODE":"30.3190","TLE_LINE1":"1 45227U 20012BB  21285.55469673  .00002184  00000-0  16544-3 0  9996","MEAN_MOTION_DOT":"0.00002184","EPHEMERIS_TYPE":"0"},{"SITE":"AFETR","MEAN_ANOMALY":"252.7228","REV_AT_EPOCH":"9275","NORAD_CAT_ID":"45228","OBJECT_TYPE":"PAYLOAD","RA_OF_ASC_NODE":"30.2852","MEAN_ELEMENT_THEORY":"SGP4","EPHEMERIS_TYPE":"0","TLE_LINE1":"1 45228U 20012BC  21285.55838297  .00001496  00000-0  11931-3 0  9999","MEAN_MOTION_DOT":"0.00001496","BSTAR":"0.00011931000000","EPOCH":"2021-10-12T13:24:04.288608","TIME_SYSTEM":"UTC","ARG_OF_PERICENTER":"107.3912","CENTER_NAME":"EARTH","INCLINATION":"53.0560","OBJECT_ID":"2020-012BC","SEMIMAJOR_AXIS":"6925.338","MEAN_MOTION":"15.06403446","APOAPSIS":"548.160","RCS_SIZE":"LARGE","PERIOD":"95.592","ECCENTRICITY":"0.00013820","MEAN_MOTION_DDOT":"0.0000000000000","FILE":"3158851","OBJECT_NAME":"STARLINK-1222","LAUNCH_DATE":"2020-02-17","DECAY_DATE":null,"ELEMENT_SET_NO":"999","REF_FRAME":"TEME","GP_ID":"186979523","TLE_LINE2":"2 45228  53.0560  30.2852 0001382 107.3912 252.7228 15.06403446 92753","PERIAPSIS":"546.246","CLASSIFICATION_TYPE":"U","COUNTRY_CODE":"US"},{"ELEMENT_SET_NO":"999","LAUNCH_DATE":"2020-02-17","DECAY_DATE":null,"OBJECT_NAME":"STARLINK-1226","COUNTRY_CODE":"US","TLE_LINE2":"2 45229  53.0572  30.4439 0001174  98.6896 261.4226 15.06395309 92755","CLASSIFICATION_TYPE":"U","PERIAPSIS":"546.415","GP_ID":"186980774","REF_FRAME":"TEME","APOAPSIS":"548.041","SEMIMAJOR_AXIS":"6925.363","MEAN_MOTION":"15.06395309","FILE":"3158851","ECCENTRICITY":"0.00011740","MEAN_MOTION_DDOT":"0.0000000000000","RCS_SIZE":"LARGE","PERIOD":"95.592","TIME_SYSTEM":"UTC","EPOCH":"2021-10-12T12:31:00.386400","BSTAR":"0.00004386300000","EPHEMERIS_TYPE":"0","MEAN_MOTION_DOT":"0.00000372","TLE_LINE1":"1 45229U 20012BD  21285.52153225  .00000372  00000-0  43863-4 0  9990","RA_OF_ASC_NODE":"30.4439","MEAN_ELEMENT_THEORY":"SGP4","INCLINATION":"53.0572","OBJECT_ID":"2020-012BD","CENTER_NAME":"EARTH","ARG_OF_PERICENTER":"98.6896","MEAN_ANOMALY":"261.4226","REV_AT_EPOCH":"9275","SITE":"AFETR","OBJECT_TYPE":"PAYLOAD","NORAD_CAT_ID":"45229"},{"COUNTRY_CODE":"US","CLASSIFICATION_TYPE":"U","TLE_LINE2":"2 45230  53.0559  30.4694 0001423 110.3386 249.7756 15.06395337 92879","PERIAPSIS":"546.242","REF_FRAME":"TEME","GP_ID":"186981025","ELEMENT_SET_NO":"999","DECAY_DATE":null,"LAUNCH_DATE":"2020-02-17","OBJECT_NAME":"STARLINK-1227","FILE":"3158851","MEAN_MOTION_DDOT":"0.0000000000000","ECCENTRICITY":"0.00014230","PERIOD":"95.592","RCS_SIZE":"LARGE","APOAPSIS":"548.213","SEMIMAJOR_AXIS":"6925.363","MEAN_MOTION":"15.06395337","OBJECT_ID":"2020-012BE","INCLINATION":"53.0559","CENTER_NAME":"EARTH","ARG_OF_PERICENTER":"110.3386","TIME_SYSTEM":"UTC","EPOCH":"2021-10-12T12:25:40.942272","BSTAR":"0.00003086300000","MEAN_MOTION_DOT":"0.00000178","TLE_LINE1":"1 45230U 20012BE  21285.51783498  .00000178  00000-0  30863-4 0  9992","EPHEMERIS_TYPE":"0","MEAN_ELEMENT_THEORY":"SGP4","RA_OF_ASC_NODE":"30.4694","OBJECT_TYPE":"PAYLOAD","NORAD_CAT_ID":"45230","MEAN_ANOMALY":"249.7756","REV_AT_EPOCH":"9287","SITE":"AFETR"}];
